[{"OBJECT_NAME":"STARLINK-5743","OBJECT_ID":"2023-020AE","EPOCH":"2026-03-09T21:05:05.615808","MEAN_MOTION":15.02796951,"ECCENTRICITY":0.00046958,"INCLINATION":43.0041,"RA_OF_ASC_NODE":351.0025,"ARG_OF_PERICENTER":34.3722,"MEAN_ANOMALY":325.7423,"EPHEMERIS_TYPE":0,"CLASSIFICATION_TYPE":"U","NORAD_CAT_ID":55597,"ELEMENT_SET_NO":999,"REV_AT_EPOCH":16909,"BSTAR":0.002257492,"MEAN_MOTION_DOT":0.00030642,"MEAN_MOTION_DDOT":0},{"OBJECT_NAME":"QPS-SAR-8 (AMATERU-IV)","OBJECT_ID":"2024-149CC","EPOCH":"2026-03-09T16:54:01.213344","MEAN_MOTION":15.03026697,"ECCENTRICITY":0.0003873,"INCLINATION":97.6699,"RA_OF_ASC_NODE":148.7511,"ARG_OF_PERICENTER":93.15,"MEAN_ANOMALY":267.0168,"EPHEMERIS_TYPE":0,"CLASSIFICATION_TYPE":"U","NORAD_CAT_ID":60542,"ELEMENT_SET_NO":999,"REV_AT_EPOCH":8532,"BSTAR":0.00061811246,"MEAN_MOTION_DOT":8.268e-5,"MEAN_MOTION_DDOT":0}]
